IRIDIUM 7               
1 24793U 97020B   24137.50611788  .00001078  00000+0  37047-3 0  9995
2 24793  86.3963 343.1072 0002170  80.6890 279.4552 14.35210697414981
IRIDIUM 5               
1 24795U 97020D   24137.60383521  .00015581  00000+0  14838-2 0  9995
2 24795  86.3904 265.4494 0124426 114.3706 247.0566 14.87540148426402
IRIDIUM 4               
1 24796U 97020E   24137.81206691  .00001004  00000+0  33832-3 0  9992
2 24796  86.3955 340.1201 0002299  85.5948 274.5511 14.36135142415597
IRIDIUM 914             
1 24836U 97030A   24137.57927304  .00001245  00000+0  38940-3 0  9994
2 24836  86.3946 349.9848 0004002  88.1218 272.0439 14.39990662550039
IRIDIUM 16              
1 24841U 97030F   24137.64802923  .00001220  00000+0  39817-3 0  9994
2 24841  86.4066  11.8435 0000834  13.8386 346.2835 14.37885635410003
IRIDIUM 911             
1 24842U 97030G   24138.38579854  .00001364  00000+0  37325-3 0  9992
2 24842  86.4489  10.6869 0013745 346.2497  13.8329 14.46519432417823
IRIDIUM 17              
1 24870U 97034B   24137.73658132  .00001306  00000+0  43439-3 0  9991
2 24870  86.3990  41.3993 0001291 129.4895 230.6417 14.36980083406632
IRIDIUM 920             
1 24871U 97034C   24138.38193377  .00001042  00000+0  32023-3 0  9993
2 24871  86.4009  21.2855 0010025 316.3317  43.7088 14.40699674409830
